[
    {
        "Altitude(m)": 702828.3047089935,
        "Argument of Periapsis(deg)": 0.006834072711976239,
        "Eccentricity": 0.0,
        "Inclination(deg)": 45.0,
        "Latitude(deg)": 6.63669339965146,
        "Longitude(deg)": 107.90248533559999,
        "Mean Anomaly(deg)": 170.5563299884885,
        "RAAN(deg)": 34.993548835125075,
        "Satellite Name": "Constellation 1 164",
        "Satellite Number": 164,
        "Semi-Major Axis(m)": 7083131.272910544,
        "Time(s)": 114
    },
    {
        "Altitude(m)": 702830.7254914541,
        "Argument of Periapsis(deg)": 0.006894020718221645,
        "Eccentricity": 0.0,
        "Inclination(deg)": 45.0,
        "Latitude(deg)": 6.593762867235014,
        "Longitude(deg)": 107.94181551404425,
        "Mean Anomaly(deg)": 170.6170311287384,
        "RAAN(deg)": 34.9934922459595,
        "Satellite Name": "Constellation 1 164",
        "Satellite Number": 164,
        "Semi-Major Axis(m)": 7083131.272910544,
        "Time(s)": 115
    },
    {
        "Altitude(m)": 702833.1668029329,
        "Argument of Periapsis(deg)": 0.006953968724467052,
        "Eccentricity": 0.0,
        "Inclination(deg)": 45.0,
        "Latitude(deg)": 6.550828532788134,
        "Longitude(deg)": 107.98113817104505,
        "Mean Anomaly(deg)": 170.6777322689883,
        "RAAN(deg)": 34.99343565679394,
        "Satellite Name": "Constellation 1 164",
        "Satellite Number": 164,
        "Semi-Major Axis(m)": 7083131.272910544,
        "Time(s)": 116
    },
    {
        "Altitude(m)": 702835.628651127,
        "Argument of Periapsis(deg)": 0.007013916730712457,
        "Eccentricity": 0.0,
        "Inclination(deg)": 45.0,
        "Latitude(deg)": 6.5078904223582485,
        "Longitude(deg)": 108.02045335619752,
        "Mean Anomaly(deg)": 170.7384334092382,
        "RAAN(deg)": 34.99337906762837,
        "Satellite Name": "Constellation 1 164",
        "Satellite Number": 164,
        "Semi-Major Axis(m)": 7083131.272910544,
        "Time(s)": 117
    },
    {
        "Altitude(m)": 702838.1110436723,
        "Argument of Periapsis(deg)": 0.007073864736957864,
        "Eccentricity": 0.0,
        "Inclination(deg)": 45.0,
        "Latitude(deg)": 6.464948561978412,
        "Longitude(deg)": 108.05976111908043,
        "Mean Anomaly(deg)": 170.7991345494881,
        "RAAN(deg)": 34.9933224784628,
        "Satellite Name": "Constellation 1 164",
        "Satellite Number": 164,
        "Semi-Major Axis(m)": 7083131.272910544,
        "Time(s)": 118
    },
    {
        "Altitude(m)": 702840.613988095,
        "Argument of Periapsis(deg)": 0.0071338127432032696,
        "Eccentricity": 0.0,
        "Inclination(deg)": 45.0,
        "Latitude(deg)": 6.422002977667523,
        "Longitude(deg)": 108.09906134115924,
        "Mean Anomaly(deg)": 170.859835689738,
        "RAAN(deg)": 34.99326588929723,
        "Satellite Name": "Constellation 1 164",
        "Satellite Number": 164,
        "Semi-Major Axis(m)": 7083131.272910544,
        "Time(s)": 119
    },
    {
        "Altitude(m)": 702843.1374918397,
        "Argument of Periapsis(deg)": 0.007193760749448674,
        "Eccentricity": 0.0,
        "Inclination(deg)": 45.0,
        "Latitude(deg)": 6.37905369543022,
        "Longitude(deg)": 108.1383544081744,
        "Mean Anomaly(deg)": 170.92053682998787,
        "RAAN(deg)": 34.99320930013166,
        "Satellite Name": "Constellation 1 164",
        "Satellite Number": 164,
        "Semi-Major Axis(m)": 7083131.272910544,
        "Time(s)": 120
    },
    {
        "Altitude(m)": 702845.6815622551,
        "Argument of Periapsis(deg)": 0.007253708755694079,
        "Eccentricity": 0.0,
        "Inclination(deg)": 45.0,
        "Latitude(deg)": 6.336100741257077,
        "Longitude(deg)": 108.1776402015593,
        "Mean Anomaly(deg)": 170.9812379702378,
        "RAAN(deg)": 34.993152710966086,
        "Satellite Name": "Constellation 1 164",
        "Satellite Number": 164,
        "Semi-Major Axis(m)": 7083131.272910544,
        "Time(s)": 121
    },
    {
        "Altitude(m)": 702848.2462066085,
        "Argument of Periapsis(deg)": 0.0073136567619394854,
        "Eccentricity": 0.0,
        "Inclination(deg)": 45.0,
        "Latitude(deg)": 6.293144141124907,
        "Longitude(deg)": 108.21691877082827,
        "Mean Anomaly(deg)": 171.0419391104877,
        "RAAN(deg)": 34.99309612180052,
        "Satellite Name": "Constellation 1 164",
        "Satellite Number": 164,
        "Semi-Major Axis(m)": 7083131.272910544,
        "Time(s)": 122
    },
    {
        "Altitude(m)": 702850.8314320659,
        "Argument of Periapsis(deg)": 0.0073736047681848904,
        "Eccentricity": 0.0,
        "Inclination(deg)": 45.0,
        "Latitude(deg)": 6.2501839209963705,
        "Longitude(deg)": 108.25619016548005,
        "Mean Anomaly(deg)": 171.1026402507376,
        "RAAN(deg)": 34.993039532634945,
        "Satellite Name": "Constellation 1 164",
        "Satellite Number": 164,
        "Semi-Major Axis(m)": 7083131.272910544,
        "Time(s)": 123
    },
    {
        "Altitude(m)": 702853.4372457137,
        "Argument of Periapsis(deg)": 0.007433552774430298,
        "Eccentricity": 0.0,
        "Inclination(deg)": 45.0,
        "Latitude(deg)": 6.207220106820701,
        "Longitude(deg)": 108.29545443499731,
        "Mean Anomaly(deg)": 171.16334139098748,
        "RAAN(deg)": 34.99298294346938,
        "Satellite Name": "Constellation 1 164",
        "Satellite Number": 164,
        "Semi-Major Axis(m)": 7083131.272910544,
        "Time(s)": 124
    },
    {
        "Altitude(m)": 702856.0636545386,
        "Argument of Periapsis(deg)": 0.007493500780675703,
        "Eccentricity": 0.0,
        "Inclination(deg)": 45.0,
        "Latitude(deg)": 6.164252724533099,
        "Longitude(deg)": 108.33471162884736,
        "Mean Anomaly(deg)": 171.2240425312374,
        "RAAN(deg)": 34.992926354303805,
        "Satellite Name": "Constellation 1 164",
        "Satellite Number": 164,
        "Semi-Major Axis(m)": 7083131.272910544,
        "Time(s)": 125
    },
    {
        "Altitude(m)": 702858.7106654447,
        "Argument of Periapsis(deg)": 0.007553448786921108,
        "Eccentricity": 0.0,
        "Inclination(deg)": 45.0,
        "Latitude(deg)": 6.121281800055527,
        "Longitude(deg)": 108.37396162838472,
        "Mean Anomaly(deg)": 171.2847436714873,
        "RAAN(deg)": 34.992869765138245,
        "Satellite Name": "Constellation 1 164",
        "Satellite Number": 164,
        "Semi-Major Axis(m)": 7083131.272910544,
        "Time(s)": 126
    },
    {
        "Altitude(m)": 702861.3782852419,
        "Argument of Periapsis(deg)": 0.007613396793166514,
        "Eccentricity": 0.0,
        "Inclination(deg)": 45.0,
        "Latitude(deg)": 6.078307359296053,
        "Longitude(deg)": 108.4132048192399,
        "Mean Anomaly(deg)": 171.3454448117372,
        "RAAN(deg)": 34.99281317597267,
        "Satellite Name": "Constellation 1 164",
        "Satellite Number": 164,
        "Semi-Major Axis(m)": 7083131.272910544,
        "Time(s)": 127
    },
    {
        "Altitude(m)": 702864.0665206441,
        "Argument of Periapsis(deg)": 0.007673344799411918,
        "Eccentricity": 0.0,
        "Inclination(deg)": 45.0,
        "Latitude(deg)": 6.035329428149781,
        "Longitude(deg)": 108.45244108273656,
        "Mean Anomaly(deg)": 171.4061459519871,
        "RAAN(deg)": 34.992756586807104,
        "Satellite Name": "Constellation 1 164",
        "Satellite Number": 164,
        "Semi-Major Axis(m)": 7083131.272910544,
        "Time(s)": 128
    },
    {
        "Altitude(m)": 702866.7753782894,
        "Argument of Periapsis(deg)": 0.007733292805657325,
        "Eccentricity": 0.0,
        "Inclination(deg)": 45.0,
        "Latitude(deg)": 5.992348032498284,
        "Longitude(deg)": 108.49167046828039,
        "Mean Anomaly(deg)": 171.466847092237,
        "RAAN(deg)": 34.99269999764153,
        "Satellite Name": "Constellation 1 164",
        "Satellite Number": 164,
        "Semi-Major Axis(m)": 7083131.272910544,
        "Time(s)": 129
    },
    {
        "Altitude(m)": 702869.5048647069,
        "Argument of Periapsis(deg)": 0.00779324081190273,
        "Eccentricity": 0.0,
        "Inclination(deg)": 45.0,
        "Latitude(deg)": 5.949363198209965,
        "Longitude(deg)": 108.530893025262,
        "Mean Anomaly(deg)": 171.5275482324869,
        "RAAN(deg)": 34.99264340847596,
        "Satellite Name": "Constellation 1 164",
        "Satellite Number": 164,
        "Semi-Major Axis(m)": 7083131.272910544,
        "Time(s)": 130
    },
    {
        "Altitude(m)": 702872.2549863557,
        "Argument of Periapsis(deg)": 0.007853188818148135,
        "Eccentricity": 0.0,
        "Inclination(deg)": 45.0,
        "Latitude(deg)": 5.906374951140162,
        "Longitude(deg)": 108.57010880305663,
        "Mean Anomaly(deg)": 171.58824937273678,
        "RAAN(deg)": 34.99258681931039,
        "Satellite Name": "Constellation 1 164",
        "Satellite Number": 164,
        "Semi-Major Axis(m)": 7083131.272910544,
        "Time(s)": 131
    },
    {
        "Altitude(m)": 702875.0257495845,
        "Argument of Periapsis(deg)": 0.007913136824393542,
        "Eccentricity": 0.0,
        "Inclination(deg)": 45.0,
        "Latitude(deg)": 5.863383317131183,
        "Longitude(deg)": 108.60931785102491,
        "Mean Anomaly(deg)": 171.6489505129867,
        "RAAN(deg)": 34.99253023014482,
        "Satellite Name": "Constellation 1 164",
        "Satellite Number": 164,
        "Semi-Major Axis(m)": 7083131.272910544,
        "Time(s)": 132
    }
]